{
  "bangloreOutletDetails": [
    {
      "storeName": "Kanti Sweets",
      "area": "Adugodi",
      "pincode": "560 030",
      "latitude": "12.9716",
      "longitude": "77.5946"
    },
    {
      "storeName": "Mumbai Tiffin",
      "area": "Agaram",
      "pincode": "560 007",
      "latitude": "12.8431",
      "longitude": "77.4863"
    },
    {
      "storeName": "Sri Krishna sagar",
      "area": "Air Force Stn. Yelahanka",
      "pincode": "560 063",
      "latitude": "13.1048",
      "longitude": "77.5763"
    },
    {
      "storeName": "Al Daaz",
      "area": "Banashankari",
      "pincode": "560 050",
      "latitude": "12.925453",
      "longitude": "77.546761"
    },
    {
      "storeName": "Beijing Bites",
      "area": "Banashankari 2nd Stage",
      "pincode": "560 070",
      "latitude": "12.9249",
      "longitude": "77.5662"
    },
    {
      "storeName": "Kitchens of Punjab",
      "area": "Banashankari 3rd Stage",
      "pincode": "560 085",
      "latitude": "12.9271",
      "longitude": "77.5548"
    },
    {
      "storeName": "99 VARIETY DOSA AND PAV BHAJI- Malli Mane Food Court",
      "area": "Bangalore City H.O.",
      "pincode": "560 002",
      "latitude": "12.972442",
      "longitude": "77.580643"
    },
    {
      "storeName": "La Pino'z Pizza",
      "area": "Bangalore G.P.O.",
      "pincode": "560 001",
      "latitude": "12.972442",
      "longitude": "77.580643"
    },
    {
      "storeName": "Hotel Manu",
      "area": "Bangalore University",
      "pincode": "560 056",
      "latitude": "12.9462",
      "longitude": "77.5103"
    },
    {
      "storeName": "Yumlane Pizza",
      "area": "Bannerghatta",
      "pincode": "560 083",
      "latitude": "12.9426",
      "longitude": "77.6027"
    },
    {
      "storeName": "Ambur Star Briyani",
      "area": "Bannerghatta Road",
      "pincode": "560 076",
      "latitude": "12.9426",
      "longitude": "77.6027"
    },
    {
      "storeName": "Cake Box",
      "area": "Bansawadi",
      "pincode": "560 043",
      "latitude": "13.0108",
      "longitude": "77.6493"
    },
    {
      "storeName": "Meghana Foods",
      "area": "Basavangudi",
      "pincode": "560 004",
      "latitude": "12.9422",
      "longitude": "77.5748"
    },
    {
      "storeName": "Momoz",
      "area": "Basaveswaranagar",
      "pincode": "560 079",
      "latitude": "12.9957",
      "longitude": "77.5419"
    },
    {
      "storeName": "A2B - Adyar Ananda Bhavan",
      "area": "Benson Town",
      "pincode": "560 046",
      "latitude": "12.9966",
      "longitude": "77.6042"
    },
    {
      "storeName": "Shawarma Inc",
      "area": "Byatarayanapura",
      "pincode": "560 092",
      "latitude": "13.0588",
      "longitude": "77.59385"
    },
    {
      "storeName": "WarmOven Cake & Desserts",
      "area": "Carmelram",
      "pincode": "560 035",
      "latitude": "12.9062",
      "longitude": "77.7066"
    },
    {
      "storeName": "Sri Lakshmi Dhaba",
      "area": "Chamrajpet West",
      "pincode": "560 018",
      "latitude": "12.9586",
      "longitude": "77.5634"
    },
    {
      "storeName": "Falahaar & Kota Kachori",
      "area": "Chickpet",
      "pincode": "560 053",
      "latitude": "12.9708",
      "longitude": "77.5806"
    },
    {
      "storeName": "Shree Khana Khazana",
      "area": "Chikkabanavara",
      "pincode": "560 090",
      "latitude": "13.0823",
      "longitude": "77.5068"
    },
    {
      "storeName": "Just Bake - Cakes & confectioners",
      "area": "C V Raman Nagar",
      "pincode": "560 093",
      "latitude": "12.9846",
      "longitude": "77.6622"
    },
    {
      "storeName": "Maa Di Hatti",
      "area": "Dasarahalli",
      "pincode": "560 057",
      "latitude": "13.0458",
      "longitude": "77.5111"
    },
    {
      "storeName": "Hotel Godavari",
      "area": "Dharmaram College",
      "pincode": "560 029",
      "latitude": "12.9376",
      "longitude": "77.5991"
    },
    {
      "storeName": "Rolls On Wheels",
      "area": "Doddakallasandra",
      "pincode": "560 062",
      "latitude": "12.8807",
      "longitude": "77.5576"
    },
    {
      "storeName": "New Udupi Grand",
      "area": "Domlur",
      "pincode": "560 071",
      "latitude": "12.961",
      "longitude": "77.6387"
    },
    {
      "storeName": "Swad Punjab da",
      "area": "Dooravaninagar",
      "pincode": "560 016",
      "latitude": "13.0077",
      "longitude": "77.6737"
    },
    {
      "storeName": "Rice Bowl",
      "area": "Fraser Town",
      "pincode": "560 005",
      "latitude": "13.0007",
      "longitude": "77.6165"
    },
    {
      "storeName": "High N Hungry",
      "area": "Gandhinagar",
      "pincode": "560 009",
      "latitude": "12.9791",
      "longitude": "77.5777"
    },
    {
      "storeName": "Burger King",
      "area": "Gavipuram Ext.",
      "pincode": "560 019",
      "latitude": "12.9463",
      "longitude": "77.5669"
    },
    {
      "storeName": "Nandhana Palace",
      "area": "G.K.V.K.",
      "pincode": "560 065",
      "latitude": "13.0821",
      "longitude": "77.5762"
    },
    {
      "storeName": "Easy Bites",
      "area": "Gokula Extension",
      "pincode": "560 054",
      "latitude": "12.9716",
      "longitude": "77.5946"
    },
    {
      "storeName": "Bengali Fun Foods",
      "area": "Hebbal Agri. Farm",
      "pincode": "560 024",
      "latitude": "13.0324",
      "longitude": "77.5992"
    },
    {
      "storeName": "Madurai Idly Shop",
      "area": "Hesaraghatta",
      "pincode": "560 088",
      "latitude": "13.1585",
      "longitude": "77.4888"
    },
    {
      "storeName": "Oottupura",
      "area": "Hesaraghatta Lake",
      "pincode": "560 089",
      "latitude": "13.1585",
      "longitude": "77.4888"
    },
    {
      "storeName": "Taco Bell",
      "area": "H K P Road",
      "pincode": "560 051",
      "latitude": "12.98551",
      "longitude": "77.60678"
    },
    {
      "storeName": "Hyderabadi Biryani Hub",
      "area": "HMT",
      "pincode": "560 031",
      "latitude": "13.0311",
      "longitude": "77.5569"
    },
    {
      "storeName": "Biriyani Zone",
      "area": "Hospital Town East",
      "pincode": "560 014",
      "latitude": "12.9956",
      "longitude": "77.6113"
    },
    {
      "storeName": "Gongura's",
      "area": "Hospital Town West",
      "pincode": "560 015",
      "latitude": "12.9716",
      "longitude": "77.5946"
    },
    {
      "storeName": "Bathinda Junction",
      "area": "Indiranagar",
      "pincode": "560 038",
      "latitude": "12.9719",
      "longitude": "77.6412"
    },
    {
      "storeName": "Leon Grill",
      "area": "J C Nagar",
      "pincode": "560 006",
      "latitude": "12.9876",
      "longitude": "77.6379"
    },
    {
      "storeName": "Venu's Donne Biryani",
      "area": "Jalahalli",
      "pincode": "560 013",
      "latitude": "13.0519",
      "longitude": "77.5416"
    },
    {
      "storeName": "Cakewala",
      "area": "Jayanagar 3rd Block",
      "pincode": "560 011",
      "latitude": "12.9329",
      "longitude": "77.5839"
    },
    {
      "storeName": "Swadista Aahar",
      "area": "Jayanagar East",
      "pincode": "560 069",
      "latitude": "12.9301",
      "longitude": "77.5877"
    },
    {
      "storeName": "Cream Stone",
      "area": "Jayanagar South",
      "pincode": "560 041",
      "latitude": "12.9301",
      "longitude": "77.5877"
    },
    {
      "storeName": "Svadu Pure Ghee Sweets",
      "area": "J P Nagar",
      "pincode": "560 078",
      "latitude": "12.9105",
      "longitude": "77.5857"
    },
    {
      "storeName": "Sai Abhiruchi",
      "area": "Kadugodi",
      "pincode": "560 067",
      "latitude": "12.9986",
      "longitude": "77.7631"
    },
    {
      "storeName": "Pizza Hut",
      "area": "Kengeri",
      "pincode": "560 060",
      "latitude": "12.9",
      "longitude": "77.4833"
    },
    {
      "storeName": "Hyderabad Biryaani House",
      "area": "Kothanur",
      "pincode": "560 077",
      "latitude": "13.0585",
      "longitude": "77.6407"
    },
    {
      "storeName": "China Pearl",
      "area": "Krishnarajapuram",
      "pincode": "560 036",
      "latitude": "13.0006",
      "longitude": "77.6746"
    },
    {
      "storeName": "Balaji's Veg",
      "area": "Kumbalgodu",
      "pincode": "560 074",
      "latitude": "12.9716",
      "longitude": "77.5946"
    },
    {
      "storeName": "Onesta",
      "area": "Koramangala",
      "pincode": "560 034",
      "latitude": "12.9317",
      "longitude": "77.6227"
    },
    {
      "storeName": "Donne Biryani Mandi",
      "area": "Koramangala 6th Block",
      "pincode": "560 095",
      "latitude": "12.9382",
      "longitude": "77.6228"
    },
    {
      "storeName": "FreshMenu",
      "area": "Madivala",
      "pincode": "560 068",
      "latitude": "12.9211",
      "longitude": "77.6134"
    },
    {
      "storeName": "Donne Biryani House",
      "area": "Magadi Road",
      "pincode": "560 023",
      "latitude": "12.9709",
      "longitude": "77.5658"
    },
    {
      "storeName": "Pipabu",
      "area": "Mahadevapura",
      "pincode": "560 048",
      "latitude": "12.9904",
      "longitude": "77.6842"
    },
    {
      "storeName": "Sharmas punjabi restaurant",
      "area": "Mahalakshmi Layout",
      "pincode": "560 086",
      "latitude": "13.0114",
      "longitude": "77.5467"
    },
    {
      "storeName": "KFC",
      "area": "Malleswaram",
      "pincode": "560 003",
      "latitude": "13.0081",
      "longitude": "77.5648"
    },
    {
      "storeName": "Donne Biriyani House",
      "area": "Malleswaram West",
      "pincode": "560 055",
      "latitude": "12.9996",
      "longitude": "77.5689"
    },
    {
      "storeName": "Nanda's",
      "area": "Marathahally Colony",
      "pincode": "560 037",
      "latitude": "12.9512",
      "longitude": "77.6998"
    },
    {
      "storeName": "Sagar fast food",
      "area": "Maruthisevanagar",
      "pincode": "560 033",
      "latitude": "13.0002",
      "longitude": "77.6336"
    },
    {
      "storeName": "calicut cafe restaurant",
      "area": "Mathikere",
      "pincode": "560 054",
      "latitude": "13.032",
      "longitude": "77.5605"
    },
    {
      "storeName": "Cake Garden",
      "area": "Nagarbhavi",
      "pincode": "560 072",
      "latitude": "12.9717",
      "longitude": "77.5132"
    },
    {
      "storeName": "Biryanis and more",
      "area": "Nagasandra",
      "pincode": "560 073",
      "latitude": "13.02889",
      "longitude": "77.44233"
    },
    {
      "storeName": "Biryani Khazana",
      "area": "Nagashettyhalli",
      "pincode": "560 094",
      "latitude": "12.9642",
      "longitude": "77.6207"
    },
    {
      "storeName": "800 Momos",
      "area": "Nandhini Layout",
      "pincode": "560 096",
      "latitude": "13.0124",
      "longitude": "77.5361"
    },
    {
      "storeName": "World of asia",
      "area": "Nayandahalli",
      "pincode": "560 039",
      "latitude": "12.9396",
      "longitude": "77.5204"
    },
    {
      "storeName": "Ghar Ka Khana",
      "area": "New Tippasandra",
      "pincode": "560 075",
      "latitude": "12.9769",
      "longitude": "77.6493"
    },
    {
      "storeName": "Thalassery Restaurant",
      "area": "Peenya S.I.",
      "pincode": "560 058",
      "latitude": "13.0085",
      "longitude": "77.4996"
    },
    {
      "storeName": "KANNUR FOOD POINT",
      "area": "Rajajinagar",
      "pincode": "560 010",
      "latitude": "12.9906",
      "longitude": "77.5533"
    },
    {
      "storeName": "KANNOOR RESTAURANT",
      "area": "Richmond Town",
      "pincode": "560 025",
      "latitude": "12.9634",
      "longitude": "77.6035"
    },
    {
      "storeName": "Fattoush",
      "area": "RT Nagar",
      "pincode": "560 032",
      "latitude": "13.0223",
      "longitude": "77.5949"
    },
    {
      "storeName": "Nizams Biryani",
      "area": "Seshadripuram",
      "pincode": "560 020",
      "latitude": "12.9864",
      "longitude": "77.582"
    },
    {
      "storeName": "Nagarjuna",
      "area": "Shanthinagar",
      "pincode": "560 027",
      "latitude": "12.9611",
      "longitude": "77.6047"
    },
    {
      "storeName": "Punjabi Rasoi",
      "area": "Srirampuram",
      "pincode": "560 021",
      "latitude": "12.987",
      "longitude": "77.5662"
    },
    {
      "storeName": "CRAVY WINGS - The American Diner",
      "area": "St.Johns",
      "pincode": "560 034",
      "latitude": "12.991388",
      "longitude": "77.61186"
    },
    {
      "storeName": "Barista",
      "area": "St.Thomas Town",
      "pincode": "560 084",
      "latitude": "13.0059",
      "longitude": "77.6231"
    },
    {
      "storeName": "BIRIYANI TASTE MASTH(BTM)",
      "area": "Subramanyapura",
      "pincode": "560 061",
      "latitude": "12.9052",
      "longitude": "77.5433"
    },
    {
      "storeName": "Leon Grill",
      "area": "Thyagarajanagar",
      "pincode": "560 028",
      "latitude": "12.9293",
      "longitude": "77.568"
    },
    {
      "storeName": "Khichdi Experiment",
      "area": "Ulsoor H.O.",
      "pincode": "560 008",
      "latitude": "12.9815",
      "longitude": "77.6192"
    },
    {
      "storeName": "Tandoori Merchant",
      "area": "Vasanthanagar",
      "pincode": "560 052",
      "latitude": "12.9911",
      "longitude": "77.592"
    },
    {
      "storeName": "Chinese Bae",
      "area": "Vidyaranyapura",
      "pincode": "560 097",
      "latitude": "13.0754",
      "longitude": "77.5591"
    },
    {
      "storeName": "Kitchens of China",
      "area": "Vijayanagar",
      "pincode": "560 040",
      "latitude": "12.9699",
      "longitude": "77.5333"
    },
    {
      "storeName": "Natural Ice Cream",
      "area": "Vimanapura",
      "pincode": "560 017",
      "latitude": "12.9645",
      "longitude": "77.6865"
    },
    {
      "storeName": "Abhiruchi Hotel",
      "area": "Virgonagar",
      "pincode": "560 049",
      "latitude": "13.0319",
      "longitude": "77.7322"
    },
    {
      "storeName": "Punjabi Swag",
      "area": "Vyalikaval",
      "pincode": "560 003",
      "latitude": "13.0041",
      "longitude": "77.5749"
    },
    {
      "storeName": "Truffles",
      "area": "Viveknagar",
      "pincode": "560 047",
      "latitude": "12.9496",
      "longitude": "77.6223"
    },
    {
      "storeName": "Gyaani Da Punjabi Dhaba",
      "area": "Whitefield",
      "pincode": "560 066",
      "latitude": "12.9698",
      "longitude": "77.7499"
    },
    {
      "storeName": "Biriyani Bhatti",
      "area": "Wilson Garden",
      "pincode": "560 027",
      "latitude": "12.949",
      "longitude": "77.5978"
    },
    {
      "storeName": "Khawa Karpo",
      "area": "Yelhanka",
      "pincode": "560 064",
      "latitude": "13.1048",
      "longitude": "77.5763"
    },
    {
      "storeName": "99 VARIETY DOSA AND JUICE-Malli mane food court",
      "area": "Yeswantpur",
      "pincode": "560 022",
      "latitude": "13.0178",
      "longitude": "77.5572"
    }
  ]
}